[{"OBJECT_NAME":"TIANMU-1 22","OBJECT_ID":"2023-208D","EPOCH":"2026-03-09T22:39:05.738688","MEAN_MOTION":15.29457749,"ECCENTRICITY":0.00031332,"INCLINATION":97.4379,"RA_OF_ASC_NODE":184.9419,"ARG_OF_PERICENTER":351.9312,"MEAN_ANOMALY":8.1877,"EPHEMERIS_TYPE":0,"CLASSIFICATION_TYPE":"U","NORAD_CAT_ID":58663,"ELEMENT_SET_NO":999,"REV_AT_EPOCH":12215,"BSTAR":0.00038239675,"MEAN_MOTION_DOT":0.00010851,"MEAN_MOTION_DDOT":0},{"OBJECT_NAME":"STARLINK-31040","OBJECT_ID":"2024-002T","EPOCH":"2026-03-09T21:11:23.987328","MEAN_MOTION":15.30191897,"ECCENTRICITY":0.00011477,"INCLINATION":53.1598,"RA_OF_ASC_NODE":229.1187,"ARG_OF_PERICENTER":98.5284,"MEAN_ANOMALY":261.5847,"EPHEMERIS_TYPE":0,"CLASSIFICATION_TYPE":"U","NORAD_CAT_ID":58722,"ELEMENT_SET_NO":999,"REV_AT_EPOCH":12204,"BSTAR":-1.1731318e-5,"MEAN_MOTION_DOT":-7.06e-6,"MEAN_MOTION_DDOT":0}]
